[{"OBJECT_NAME":"QIANFAN-61","OBJECT_ID":"2025-016G","EPOCH":"2026-03-09T21:53:14.897472","MEAN_MOTION":13.51009833,"ECCENTRICITY":0.001688,"INCLINATION":88.9734,"RA_OF_ASC_NODE":94.2582,"ARG_OF_PERICENTER":91.6936,"MEAN_ANOMALY":268.6149,"EPHEMERIS_TYPE":0,"CLASSIFICATION_TYPE":"U","NORAD_CAT_ID":62791,"ELEMENT_SET_NO":999,"REV_AT_EPOCH":5901,"BSTAR":0.0013981772,"MEAN_MOTION_DOT":9.16e-6,"MEAN_MOTION_DDOT":0},{"OBJECT_NAME":"NIMBUS 2 DEB","OBJECT_ID":"1966-040M","EPOCH":"2026-03-09T15:25:51.369024","MEAN_MOTION":13.54593148,"ECCENTRICITY":0.0060006,"INCLINATION":100.3011,"RA_OF_ASC_NODE":335.7661,"ARG_OF_PERICENTER":38.167,"MEAN_ANOMALY":27.7126,"EPHEMERIS_TYPE":0,"CLASSIFICATION_TYPE":"U","NORAD_CAT_ID":26962,"ELEMENT_SET_NO":999,"REV_AT_EPOCH":21415,"BSTAR":0.0064471,"MEAN_MOTION_DOT":4.416e-5,"MEAN_MOTION_DDOT":0}]
